APSTAR 7                
1 38107U 12013A   22353.89355160 -.00000074  00000+0  00000+0 0  9998
2 38107   0.0262  87.3376 0003270 187.8067 211.5056  1.00270955 39386
YAHSAT 1B               
1 38245U 12016A   22353.29632757  .00000154  00000+0  00000+0 0  9996
2 38245   0.0387  96.7856 0001857 192.4946 312.8857  1.00269563 32808
AEHF-2 (USA 235)        
1 38254U 12019A   22353.79837253 -.00000135  00000+0  00000+0 0  9992
2 38254   3.7408  61.7806 0003973 209.2706  10.5474  1.00272271 38062
JCSAT-13                
1 38331U 12023A   22354.56347706 -.00000330  00000+0  00000+0 0  9995
2 38331   0.0220 357.9586 0001916 265.2720 152.7363  1.00269853 38796
VINASAT-2               
1 38332U 12023B   22354.52607753 -.00000302  00000+0  00000+0 0  9992
2 38332   0.0169 325.8984 0002042 304.1471 140.2835  1.00271239 38834
NIMIQ 6                 
1 38342U 12026A   22354.47104378 -.00000147  00000+0  00000+0 0  9992
2 38342   0.0304 298.5928 0002367 331.5223 257.4085  1.00271306 38810
CHINASAT 2A (ZX 2A)     
1 38352U 12028A   22354.41051649 -.00000266  00000+0  00000+0 0  9993
2 38352   0.0380 124.4098 0001567 170.7531  39.8553  1.00272902 38855
INTELSAT 19 (IS-19)     
1 38356U 12030A   22354.13711990 -.00000029  00000+0  00000+0 0  9998
2 38356   0.0148 339.9045 0003139 294.6241  29.5559  1.00272463 38727
ECHOSTAR 17             
1 38551U 12035A   22354.45813471 -.00000048  00000+0  00000+0 0  9993
2 38551   0.0172 352.1694 0001954 275.7105 238.9800  1.00270486 38346
METEOSAT-10 (MSG-3)     
1 38552U 12035B   22354.32091090  .00000087  00000+0  00000+0 0  9997
2 38552   1.8294  50.1516 0000971 180.3773 343.3665  1.00270149 38435
SES-5                   
1 38652U 12036A   22354.23868848  .00000061  00000+0  00000+0 0  9994
2 38652   0.0579 297.2707 0001944 330.6826 271.7706  1.00271153 38288
TIANLIAN 1-03           
1 38730U 12040A   22351.09540765  .00000150  00000+0  00000+0 0  9991
2 38730   2.4773  89.1591 0002714 327.2828  84.1170  1.00276982 38170
INTELSAT 20 (IS-20)     
1 38740U 12043A   22354.18937896  .00000003  00000+0  00000+0 0  9990
2 38740   0.0085  76.1719 0003374 124.0621  25.2063  1.00271270 38044
HYLAS 2                 
1 38741U 12043B   22354.27549630  .00000181  00000+0  00000+0 0  9993
2 38741   0.0273 283.1469 0001624 343.2036 312.7263  1.00272967 38069
INTELSAT 21 (IS-21)     
1 38749U 12045A   22354.49701234 -.00000258  00000+0  00000+0 0  9993
2 38749   0.0166 313.3863 0001914 307.3573 309.2551  1.00268242 37859
ASTRA 2F                
1 38778U 12051A   22354.32474617  .00000177  00000+0  00000+0 0  9995
2 38778   0.0758 249.3300 0004184 354.2687 350.4195  1.00269108 37507
GSAT-10                 
1 38779U 12051B   22353.89355160 -.00000138  00000+0  00000+0 0  9996
2 38779   0.0621 102.4504 0004497 166.4203 224.3232  1.00270511 37507
INTELSAT 23 (IS-23)     
1 38867U 12057A   22354.50110038 -.00000258  00000+0  00000+0 0  9995
2 38867   0.0256  14.3204 0000761 318.3007 243.8338  1.00268705 37322
BEIDOU 16               
1 38953U 12059A   22353.89355160 -.00000149  00000+0  00000+0 0  9990
2 38953   1.3828  82.1362 0008895 291.9281 120.1702  1.00271560 37269
LUCH 5B                 
1 38977U 12061A   22353.94354986 -.00000114  00000+0  00000+0 0  9992
2 38977   7.6929  61.2043 0002918 149.3379 201.3153  1.00271550 37388
YAMAL 300K              
1 38978U 12061B   22354.49916328  .00000098  00000+0  00000+0 0  9998
2 38978   0.0142 286.9243 0000080 237.6458 287.1592  1.00270632 37095
STAR ONE C3             
1 38991U 12062A   22354.01646674 -.00000221  00000+0  00000+0 0  9995
2 38991   0.0252   4.4081 0001706 265.0806 110.0228  1.00268316 37077
EUTELSAT 21B            
1 38992U 12062B   22353.82138407  .00000157  00000+0  00000+0 0  9991
2 38992   0.0643   6.5715 0002883 255.3519 143.7579  1.00270395 37048
ECHOSTAR 16             
1 39008U 12065A   22354.49488410 -.00000255  00000+0  00000+0 0  9999
2 39008   0.0176 357.0355 0002022 273.2674 295.4243  1.00269944 37027
CHINASAT 12 (ZX 12)     
1 39017U 12067A   22354.14285681 -.00000179  00000+0  00000+0 0  9993
2 39017   0.0077  37.2930 0002936 223.9348 326.4037  1.00270548 36923
EUTELSAT 70B            
1 39020U 12069A   22353.83114655 -.00000016  00000+0  00000+0 0  9996
2 39020   0.0598   1.3190 0006278 245.2315 211.5574  1.00271825 36726
YAMAL 402               
1 39022U 12070A   22352.15466370  .00000112  00000+0  00000+0 0  9994
2 39022   0.0103  63.7157 0004216 201.7401 291.8968  1.00273875 36790
SKYNET 5D               
1 39034U 12075A   22354.40136418  .00000126  00000+0  00000+0 0  9994
2 39034   0.0709   2.2290 0003886 262.9914  21.0005  1.00269596 36735
MEXSAT 3                
1 39035U 12075B   22353.65080220  .00000002  00000+0  00000+0 0  9993
2 39035   0.0105   2.4142 0002373 252.1802 313.1241  1.00270893 36392
TDRS 11                 
1 39070U 13004A   22354.49968626  .00000106  00000+0  00000+0 0  9998
2 39070   2.7899 351.8247 0003662  50.0743  52.7451  1.00276655 36209
AMAZONAS 3              
1 39078U 13006A   22353.44698524 -.00000255  00000+0  00000+0 0  9995
2 39078   0.0401 229.7687 0004530   9.7586 308.4334  1.00272900 32115
AZERSPACE 1             
1 39079U 13006B   22354.26993916  .00000160  00000+0  00000+0 0  9994
2 39079   0.0036  71.1892 0002091 221.8578 298.9626  1.00269718 36142
SBIRS GEO-2 (USA 241)   
1 39120U 13011A   22353.88129069 -.00000231  00000+0  00000+0 0  9994
2 39120   2.1326  31.0224 0002651 228.2630 108.4277  1.00271121 35798
EUTELSAT 117 WEST A     
1 39122U 13012A   22354.49424594  .00000014  00000+0  00000+0 0  9994
2 39122   0.0105 341.4310 0002743 284.7182 244.0584  1.00270525 35680
ANIK G1                 
1 39127U 13014A   22353.65228400 -.00000047  00000+0  00000+0 0  9993
2 39127   0.0186  62.0948 0002767 206.5765 307.0765  1.00271073 35457
CHINASAT 11 (ZX 11)     
1 39157U 13020A   22354.46507979 -.00000263  00000+0  00000+0 0  9994
2 39157   0.0017 267.1121 0001582  10.4298  76.8353  1.00270028 35364
EUTELSAT 7B             
1 39163U 13022A   22353.81850763  .00000076  00000+0  00000+0 0  9994
2 39163   0.0668 350.8330 0004021 332.7325  66.5077  1.00272986 35170
WGS F5 (USA 243)        
1 39168U 13024A   22353.98590993 -.00000257  00000+0  00000+0 0  9997
2 39168   0.0209  19.3937 0000324   7.8823   3.7120  1.00267171 35049
SES-6                   
1 39172U 13026A   22354.45462198 -.00000234  00000+0  00000+0 0  9997
2 39172   0.0184 341.4257 0002002 290.0041 300.7565  1.00271716 34944
IRNSS-1A                
1 39199U 13034A   22353.82809578  .00000083  00000+0  00000+0 0  9993
2 39199  32.8426  82.5713 0021882 185.3778 173.5471  1.00275786 34858
MUOS-2                  
1 39206U 13036A   22353.81542597  .00000090  00000+0  00000+0 0  9996
2 39206   2.8638  28.9593 0054022 183.1663 352.7954  1.00272245 34517
ALPHASAT                
1 39215U 13038A   22354.32413601  .00000159  00000+0  00000+0 0  9994
2 39215   2.7764  12.0690 0001870 245.7564 332.5964  1.00269616 34487
INSAT-3D                
1 39216U 13038B   22354.40729140 -.00000129  00000+0  00000+0 0  9990
2 39216   0.0755 270.0557 0001609 347.2537  60.3606  1.00271104 34524
WGS F6 (USA 244)        
1 39222U 13041A   22354.31707411  .00000116  00000+0  00000+0 0  9993
2 39222   0.0177  69.3208 0000293 118.5564 239.9621  1.00271362 34288
ES'HAIL 1               
1 39233U 13044A   22354.32431034  .00000170  00000+0  00000+0 0  9994
2 39233   0.0481 350.7032 0001681 276.9014 323.5617  1.00272801 34117
GSAT-7                  
1 39234U 13044B   22353.76230124 -.00000050  00000+0  00000+0 0  9997
2 39234   0.0459 105.6918 0009567 162.3585 168.7117  1.00271042 32539
AMOS-4                  
1 39237U 13045A   22353.75836378  .00000035  00000+0  00000+0 0  9995
2 39237   0.0064  45.4668 0003010 256.6374 124.2236  1.00271874 34160
AEHF-3 (USA 246)        
1 39256U 13050A   22353.78616944  .00000160  00000+0  00000+0 0  9999
2 39256   2.1348  73.3961 0059076 185.1635 317.7287  1.00270838 32885
ASTRA 2E                
1 39285U 13056A   22353.82277872  .00000178  00000+0  00000+0 0  9994
2 39285   0.0544   4.4660 0002583 266.1144 142.5035  1.00271409 33644
FM-6                    
1 39360U 13058A   22354.51715822  .00000010  00000+0  00000+0 0  9994
2 39360   0.0290  40.9944 0000225 124.5106 353.5751  1.00270496 33567
RADUGA-1M 3             
1 39375U 13062A   22354.18271116  .00000181  00000+0  00000+0 0  9990
2 39375   2.7039  87.6818 0001887 126.1776 335.6619  1.00272184 33343
SES-8                   
1 39460U 13071A   22353.82602138 -.00000242  00000+0  00000+0 0  9996
2 39460   0.0164 279.3163 0000463 341.2426 220.2114  1.00270172 31647
INMARSAT 5-F1           
1 39476U 13073A   22354.25882764  .00000056  00000+0  00000+0 0  9990
2 39476   0.0257   7.9218 0000519  94.7605 141.9015  1.00267864 33144
TKSAT-1 (TUPAC KATARI)  
1 39481U 13075A   22353.87144105 -.00000167  00000+0  00000+0 0  9999
2 39481   0.0427 179.2995 0002311 102.5126  33.1794  1.00270933 33060
EXPRESS-AM5             
1 39487U 13077A   22352.25535334 -.00000254  00000+0  00000+0 0  9993
2 39487   0.0396 196.7031 0001357 197.7865 284.3172  1.00269751 33539
GSAT-14                 
1 39498U 14001A   22353.90360492 -.00000050  00000+0  00000+0 0  9991
2 39498   0.0211  99.9797 0005582 166.4770 221.3247  1.00272144 32793
THAICOM 6               
1 39500U 14002A   22353.89355160 -.00000094  00000+0  00000+0 0  9998
2 39500   0.0741 112.0056 0002356 136.6510 240.0258  1.00272029 32733
TDRS 12                 
1 39504U 14004A   22353.80891949 -.00000245  00000+0  00000+0 0  9993
2 39504   3.7199 350.8226 0002020 245.3969 102.4072  1.00266956 32657
ABS-2                   
1 39508U 14006A   22353.83201819 -.00000059  00000+0  00000+0 0  9996
2 39508   0.0323 321.5903 0003106 300.3855 200.8862  1.00271560 32500
ATHENA-FIDUS            
1 39509U 14006B   22353.93174615  .00000181  00000+0  00000+0 0  9996
2 39509   0.0198  11.5081 0001094 242.1437 208.0693  1.00273299 32713
